INTELSAT 25 (IS-25)     
1 33153U 08034A   20076.18938513 -.00000245  00000-0  00000+0 0  9994
2 33153   0.0252 234.0703 0002062  90.6153 246.2003  1.00273732 42737
BADR-6                  
1 33154U 08034B   20076.09774840  .00000123  00000-0  00000-0 0  9991
2 33154   0.0610  38.5262 0005864 351.4183 205.3429  1.00270521 42851
ECHOSTAR 11             
1 33207U 08035A   20076.21299492 -.00000077  00000-0  00000-0 0  9999
2 33207   0.0286 271.9973 0002832 108.7909 120.1131  1.00272123 28344
SUPERBIRD-C2            
1 33274U 08038A   20076.19309723 -.00000272  00000-0  00000-0 0  9999
2 33274   0.0256 241.3246 0001675 136.1231  10.2290  1.00271234 82826
AMC-21                  
1 33275U 08038B   20076.28553104  .00000015  00000-0  00000-0 0  9998
2 33275   0.0375 319.1668 0002447  44.0880 148.9219  1.00271774 42595
INMARSAT 4-F3           
1 33278U 08039A   20075.92947035 -.00000159  00000-0  00000+0 0  9991
2 33278   3.1143  11.8947 0002468 353.5482  45.1588  1.00272689 42368
NIMIQ 4                 
1 33373U 08044A   20076.15396824 -.00000241  00000-0  00000+0 0  9995
2 33373   0.0026 188.6086 0002597 164.1712 154.8408  1.00272651 41932
GALAXY 19 (G-19)        
1 33376U 08045A   20076.20743766 -.00000160  00000-0  00000-0 0  9997
2 33376   0.0182 163.5226 0002957 209.8929 138.4888  1.00271914 42047
VENESAT-1               
1 33414U 08055A   20072.48782784 -.00000256  00000-0  00000-0 0  9996
2 33414   0.0457  97.3261 0001593 290.5242 240.3114  1.00268615 41743
ASTRA 1M                
1 33436U 08057A   20076.17271615  .00000099  00000-0  00000+0 0  9991
2 33436   0.0110 173.6167 0002088 257.2738 184.6650  1.00270307 41573
CIEL-2                  
1 33453U 08063A   20076.24677667  .00000037  00000-0  00000-0 0  9995
2 33453   0.0328 249.7651 0002810 100.4136 144.0668  1.00271260 41253
EUTELSAT HOT BIRD 13C   
1 33459U 08065A   20076.17271615  .00000066  00000-0  00000-0 0  9990
2 33459   0.0596  47.2772 0004691 341.6327 220.4266  1.00271810 24447
EUTELSAT 48D            
1 33460U 08065B   20076.10219743  .00000103  00000-0  00000+0 0  9990
2 33460   0.0562 340.2412 0001804  42.0557 236.7645  1.00274020 41209
FENGYUN 2E              
1 33463U 08066A   20075.86438168 -.00000223  00000-0  00000-0 0  9995
2 33463   4.1458  68.7714 0004053 294.4697 208.5632  1.00271213 41186
EXPRESS-AM44            
1 33595U 09007A   20076.27621322 -.00000110  00000-0  00000-0 0  9994
2 33595   0.0315 298.5167 0000354 110.5559 213.6531  1.00271691 40655
NSS-9                   
1 33749U 09008A   20076.25374181  .00000051  00000-0  00000-0 0  9995
2 33749   0.0427 342.3189 0002332  32.5246  73.8498  1.00273989 40623
EUTELSAT 33E            
1 33750U 09008B   20075.66851046  .00000135  00000-0  00000-0 0  9994
2 33750   0.0585  16.5933 0003875 352.9997  77.8576  1.00273926 40545
TELSTAR 11N             
1 34111U 09009A   20076.15689432 -.00000272  00000-0  00000-0 0  9993
2 34111   0.0185 171.0558 0002378 179.7495 202.2819  1.00270111 23344
EUTELSAT 10A            
1 34710U 09016A   20076.23660444  .00000047  00000-0  00000-0 0  9996
2 34710   0.0685  17.7599 0005331 342.1890 269.4907  1.00273785 18350
WGS F2 (USA 204)        
1 34713U 09017A   20076.17643517  .00000027  00000-0  00000+0 0  9992
2 34713   0.0211 149.4299 0000478 269.5088 238.9855  1.00270031 40030
SES-7 (PROTOSTAR 2)     
1 34941U 09027A   20076.40132932 -.00000366  00000-0  00000+0 0  9993
2 34941   0.0348 103.5740 0001410 228.1784  95.4008  1.00272963 39723
MEASAT-3A               
1 35362U 09032A   20076.14494083 -.00000263  00000-0  00000-0 0  9993
2 35362   0.0415 224.6754 0001232  75.1678  18.0076  1.00272797 39349
GOES 14                 
1 35491U 09033A   20076.21230050 -.00000115  00000-0  00000-0 0  9993
2 35491   0.1019 100.9065 0008679 131.4404 274.1973  1.00271818 39220
SIRIUS FM-5             
1 35493U 09034A   20076.47762142 -.00000221  00000-0  00000+0 0  9993
2 35493   0.0300 288.7571 0000991 114.0152 217.5236  1.00270967 39077
TERRESTAR-1             
1 35496U 09035A   20076.07044355 -.00000076  00000-0  00000+0 0  9990
2 35496   2.5111  14.1508 0003051 355.5941  78.7167  1.00272669 39257
ASIASAT 5               
1 35696U 09042A   20076.04087059 -.00000328  00000-0  00000-0 0  9996
2 35696   0.0303 249.5841 0001574  97.9189 301.7900  1.00270943 38782
JCSAT-RA (JCSAT-12)     
1 35755U 09044A   20076.12627455 -.00000052  00000-0  00000+0 0  9996
2 35755   0.0431 243.9117 0002212 144.9817 359.6056  1.00272224 38761
OPTUS D3                
1 35756U 09044B   20075.68452122 -.00000168  00000-0  00000+0 0  9992
2 35756   0.0163 336.6102 0004378  29.2607 210.2940  1.00270701 38723
PALAPA D                
1 35812U 09046A   20076.20227005 -.00000379  00000-0  00000+0 0  9990
2 35812   0.0620  81.1787 0002608 317.0076 321.8072  1.00270367 38775
NIMIQ 5                 
1 35873U 09050A   20076.14991545 -.00000278  00000-0  00000-0 0  9991
2 35873   0.0226 253.7869 0002572 127.3946 134.2644  1.00272619 38458
AMAZONAS 2              
1 35942U 09054A   20076.20118823 -.00000303  00000-0  00000-0 0  9998
2 35942   0.0368 131.7086 0002188 283.9031 130.0473  1.00270614 38283
COMSATBW-1              
1 35943U 09054B   20076.17695859  .00000004  00000-0  00000-0 0  9991
2 35943   0.0549 108.7605 0003183 275.7020 276.4074  1.00271762 38398
NSS-12                  
1 36032U 09058A   20076.17573729  .00000050  00000-0  00000-0 0  9997
2 36032   0.0194 280.2472 0002889  85.4286 288.7809  1.00272719 38029
THOR 6                  
1 36033U 09058B   20076.05674472 -.00000031  00000-0  00000-0 0  9992
2 36033   0.0092 179.8933 0002031 203.9666 169.7957  1.00271098 38111
INTELSAT 14 (IS-14)     
1 36097U 09064A   20076.22479865 -.00000294  00000-0  00000-0 0  9998
2 36097   0.0225 123.1421 0002561 251.8676 195.1780  1.00271811 37809
EUTELSAT 36B            
1 36101U 09065A   20076.17154997  .00000134  00000-0  00000-0 0  9997
2 36101   0.0687  16.2430 0004829 351.4912 264.1103  1.00274202 37823
INTELSAT 15 (IS-15)     
1 36106U 09067A   20076.21924392 -.00000206  00000-0  00000+0 0  9993
2 36106   0.0202 154.4359 0002463 229.7093 314.1992  1.00269230 37697
WGS F3 (USA 211)        
1 36108U 09068A   20076.09830762 -.00000118  00000-0  00000+0 0  9991
2 36108   0.0223 147.9252 0000400 296.9802 112.6060  1.00270072 37619
DIRECTV 12              
1 36131U 09075A   20076.23083199 -.00000124  00000-0  00000-0 0  9993
2 36131   0.0342 311.5316 0000332 109.8532  93.1612  1.00272088 23691
BEIDOU 3                
1 36287U 10001A   20076.06078391 -.00000304  00000-0  00000-0 0  9995
2 36287   1.3918  18.9947 0002911 109.8822 207.0778  1.00274966 37276
RADUGA-1M 2             
1 36358U 10002A   20075.96602219 -.00000205  00000-0  00000-0 0  9995
2 36358   0.0175 227.0056 0002271 181.8025 197.9545  1.00271027 27198
INTELSAT 16 (IS-16)     
1 36397U 10006A   20076.50810605 -.00000266  00000-0  00000+0 0  9999
2 36397   0.0183 157.5984 0001992 217.0001 266.6401  1.00271675 36837
GOES 15                 
1 36411U 10008A   20076.43646442  .00000033  00000-0  00000+0 0  9997
2 36411   0.3365 276.7234 0002454 139.7392 146.8183  1.00276980 36771
ECHOSTAR 14             
1 36499U 10010A   20076.30018816 -.00000020  00000-0  00000-0 0  9998
2 36499   0.0098 219.4072 0002757 135.5425 168.5376  1.00271481 23668
SES-1                   
1 36516U 10016A   20076.45457845 -.00000136  00000-0  00000+0 0  9996
2 36516   0.0251 279.0159 0002522  81.2850 236.8173  1.00272150 36231
ASTRA 3B                
1 36581U 10021A   20076.21557141  .00000116  00000-0  00000+0 0  9995
2 36581   0.0390  42.2919 0003550 310.6037 282.4704  1.00268572 35744
COMSATBW-2              
1 36582U 10021B   20072.57778806  .00000070  00000-0  00000-0 0  9994
2 36582   0.0220 145.3547 0002384 247.5716 358.9683  1.00276795 36017
BADR-5                  
1 36592U 10025A   20076.31304660  .00000123  00000-0  00000+0 0  9996
2 36592   0.0425 117.6374 0001769 301.2730 254.0996  1.00269925 35991
COMS 1                  
1 36744U 10032A   20075.97457132 -.00000365  00000-0  00000-0 0  9997
2 36744   0.0202 149.0971 0001083 238.4513 265.4234  1.00273179 28184
ARABSAT-5A              
1 36745U 10032B   20076.17050312  .00000132  00000-0  00000-0 0  9991
2 36745   0.0712  47.1469 0002648 349.0541 229.8600  1.00273907 35749
ECHOSTAR 15             
1 36792U 10034A   20076.43918970 -.00000303  00000-0  00000+0 0  9997
2 36792   0.0245 262.8799 0001960  99.6773 268.3308  1.00275221 35491
BEIDOU 5                
1 36828U 10036A   20076.23921661 -.00000168  00000-0  10000-3 0  9992
2 36828  54.1631 183.8568 0092098 233.1149 321.4215  1.00289559 35318
NILESAT 201             
1 36830U 10037A   20076.26021838 -.00000079  00000-0  00000-0 0  9993
2 36830   0.0456 163.9595 0005528 219.3310 237.6419  1.00271977 35468
RASCOM-QAF 1R           
1 36831U 10037B   20076.23660444 -.00000002  00000-0  00000-0 0  9999
2 36831   0.0282 127.6324 0005551 225.1052 269.6006  1.00272838 35393
AEHF-1 (USA 214)        
1 36868U 10039A   20076.02896733  .00000006  00000-0  00000-0 0  9993
2 36868   2.5247  99.4140 0004085 287.4417 161.6145  1.00273777 30753
CHINASAT 6A (ZX 6A)     
1 37150U 10042A   20073.50396419 -.00000373  00000-0  00000+0 0  9995
2 37150   0.0257 154.1642 0001925 349.6967 334.2100  1.00272717 34979
QZS-1 (MICHIBIKI-1)     
1 37158U 10045A   20074.65127750 -.00000221  00000-0  00000-0 0  9996
2 37158  41.5412 144.9363 0748858 270.0259 126.8245  1.00301825 34801
XM-5                    
1 37185U 10053A   20076.47762142 -.00000226  00000-0  00000+0 0  9991
2 37185   0.0216 162.1226 0002195 254.2771 204.8565  1.00269025 34541
BSAT-3B                 
1 37207U 10056B   20076.08799578 -.00000371  00000-0  00000-0 0  9991
2 37207   0.0803 310.1347 0003407  36.3681 329.1351  1.00271759 29289
